{
  "norad_id": 33498,
  "name": "STARS (KUKAI)",
  "history": [
    {
      "epoch": "2026-03-28T19:02:02.477472Z",
      "apogee_km": 589.1819356399355,
      "perigee_km": 574.7779736023467,
      "latitude_deg": 4.898325351751416e-05,
      "longitude_deg": -79.82806514701952,
      "height_km": 583.4631917531647,
      "semi_major_axis_km": 6960.11695462114,
      "eccentricity": 0.00103475,
      "inclination_deg": 98.1482,
      "raan_deg": 31.8907,
      "arg_perigee_deg": 77.7442,
      "mean_anomaly_deg": 282.4936,
      "mean_motion_rev_day": 14.95126558
    },
    {
      "epoch": "2026-03-29T03:03:54.047232Z",
      "apogee_km": 589.175739044741,
      "perigee_km": 574.7571887089744,
      "latitude_deg": -2.851041369737055e-05,
      "longitude_deg": 159.72485076691666,
      "height_km": 583.3311213475565,
      "semi_major_axis_km": 6960.103463876858,
      "eccentricity": 0.0010358,
      "inclination_deg": 98.1483,
      "raan_deg": 32.2383,
      "arg_perigee_deg": 76.79,
      "mean_anomaly_deg": 283.4474,
      "mean_motion_rev_day": 14.95130905
    }
  ]
}